CCSDS_OMM_VERS = 2.0
CREATION_DATE  = 
ORIGINATOR     = 

OBJECT_NAME    = COSMOS 1933
OBJECT_ID      = 1988-020A
CENTER_NAME    = EARTH
REF_FRAME      = TEME
TIME_SYSTEM    = UTC
MEAN_ELEMENT_THEORY = SGP/SGP4

EPOCH          = 2025-12-03T18:46:41.672928
MEAN_MOTION    = 15.16988994
ECCENTRICITY   = .000509
INCLINATION    = 82.5126
RA_OF_ASC_NODE = 345.7294
ARG_OF_PERICENTER = 151.1847
MEAN_ANOMALY   = 208.9668

EPHEMERIS_TYPE = 0
CLASSIFICATION_TYPE = U
NORAD_CAT_ID   = 18958
ELEMENT_SET_NO = 999
REV_AT_EPOCH   = 3568
BSTAR          = .32104E-3
MEAN_MOTION_DOT = .6371E-4
MEAN_MOTION_DDOT = 0

CCSDS_OMM_VERS = 2.0
CREATION_DATE  = 
ORIGINATOR     = 

OBJECT_NAME    = SL-3 R/B
OBJECT_ID      = 1988-032B
CENTER_NAME    = EARTH
REF_FRAME      = TEME
TIME_SYSTEM    = UTC
MEAN_ELEMENT_THEORY = SGP/SGP4

EPOCH          = 2025-12-03T18:27:06.681312
MEAN_MOTION    = 15.18593800
ECCENTRICITY   = .002575
INCLINATION    = 97.5064
RA_OF_ASC_NODE = 316.5528
ARG_OF_PERICENTER = 204.7654
MEAN_ANOMALY   = 155.2346

EPHEMERIS_TYPE = 0
CLASSIFICATION_TYPE = U
NORAD_CAT_ID   = 19046
ELEMENT_SET_NO = 999
REV_AT_EPOCH   = 3754
BSTAR          = .3968E-3
MEAN_MOTION_DOT = .821E-4
MEAN_MOTION_DDOT = 0

CCSDS_OMM_VERS = 2.0
CREATION_DATE  = 
ORIGINATOR     = 

OBJECT_NAME    = SL-16 R/B
OBJECT_ID      = 1988-039B
CENTER_NAME    = EARTH
REF_FRAME      = TEME
TIME_SYSTEM    = UTC
MEAN_ELEMENT_THEORY = SGP/SGP4

EPOCH          = 2025-12-03T20:50:42.719136
MEAN_MOTION    = 14.19593808
ECCENTRICITY   = .0020005
INCLINATION    = 71.0149
RA_OF_ASC_NODE = 271.1549
ARG_OF_PERICENTER = 131.2567
MEAN_ANOMALY   = 229.0285

EPHEMERIS_TYPE = 0
CLASSIFICATION_TYPE = U
NORAD_CAT_ID   = 19120
ELEMENT_SET_NO = 999
REV_AT_EPOCH   = 94478
BSTAR          = .8768E-4
MEAN_MOTION_DOT = .137E-5
MEAN_MOTION_DDOT = 0

CCSDS_OMM_VERS = 2.0
CREATION_DATE  = 
ORIGINATOR     = 

OBJECT_NAME    = COSMOS 1953
OBJECT_ID      = 1988-050A
CENTER_NAME    = EARTH
REF_FRAME      = TEME
TIME_SYSTEM    = UTC
MEAN_ELEMENT_THEORY = SGP/SGP4

EPOCH          = 2025-12-03T18:59:43.974816
MEAN_MOTION    = 15.26768301
ECCENTRICITY   = .00138
INCLINATION    = 82.5097
RA_OF_ASC_NODE = 254.5577
ARG_OF_PERICENTER = 98.5861
MEAN_ANOMALY   = 261.6942

EPHEMERIS_TYPE = 0
CLASSIFICATION_TYPE = U
NORAD_CAT_ID   = 19210
ELEMENT_SET_NO = 999
REV_AT_EPOCH   = 2314
BSTAR          = .36884E-3
MEAN_MOTION_DOT = .9764E-4
MEAN_MOTION_DDOT = 0

CCSDS_OMM_VERS = 2.0
CREATION_DATE  = 
ORIGINATOR     = 

OBJECT_NAME    = SL-8 R/B
OBJECT_ID      = 1988-053B
CENTER_NAME    = EARTH
REF_FRAME      = TEME
TIME_SYSTEM    = UTC
MEAN_ELEMENT_THEORY = SGP/SGP4

EPOCH          = 2025-12-03T09:10:58.893312
MEAN_MOTION    = 14.38849615
ECCENTRICITY   = .0019218
INCLINATION    = 74.0475
RA_OF_ASC_NODE = 289.9649
ARG_OF_PERICENTER = 137.4816
MEAN_ANOMALY   = 27.7045

EPHEMERIS_TYPE = 0
CLASSIFICATION_TYPE = U
NORAD_CAT_ID   = 19257
ELEMENT_SET_NO = 999
REV_AT_EPOCH   = 96274
BSTAR          = .13441E-3
MEAN_MOTION_DOT = .388E-5
MEAN_MOTION_DDOT = 0

CCSDS_OMM_VERS = 2.0
CREATION_DATE  = 
ORIGINATOR     = 

OBJECT_NAME    = COSMOS 1975
OBJECT_ID      = 1988-093A
CENTER_NAME    = EARTH
REF_FRAME      = TEME
TIME_SYSTEM    = UTC
MEAN_ELEMENT_THEORY = SGP/SGP4

EPOCH          = 2025-12-03T17:37:01.451712
MEAN_MOTION    = 15.26261430
ECCENTRICITY   = .0012249
INCLINATION    = 82.5216
RA_OF_ASC_NODE = 213.8421
ARG_OF_PERICENTER = 140.9470
MEAN_ANOMALY   = 219.2655

EPHEMERIS_TYPE = 0
CLASSIFICATION_TYPE = U
NORAD_CAT_ID   = 19573
ELEMENT_SET_NO = 999
REV_AT_EPOCH   = 476
BSTAR          = .48387E-3
MEAN_MOTION_DOT = .12601E-3
MEAN_MOTION_DDOT = 0

CCSDS_OMM_VERS = 2.0
CREATION_DATE  = 
ORIGINATOR     = 

OBJECT_NAME    = SL-14 R/B
OBJECT_ID      = 1988-093B
CENTER_NAME    = EARTH
REF_FRAME      = TEME
TIME_SYSTEM    = UTC
MEAN_ELEMENT_THEORY = SGP/SGP4

EPOCH          = 2025-12-03T13:09:38.741184
MEAN_MOTION    = 14.85532857
ECCENTRICITY   = .002075
INCLINATION    = 82.5295
RA_OF_ASC_NODE = 132.2926
ARG_OF_PERICENTER = 0.3563
MEAN_ANOMALY   = 67.0860

EPHEMERIS_TYPE = 0
CLASSIFICATION_TYPE = U
NORAD_CAT_ID   = 19574
ELEMENT_SET_NO = 999
REV_AT_EPOCH   = 98676
BSTAR          = .89374E-4
MEAN_MOTION_DOT = .799E-5
MEAN_MOTION_DDOT = 0

CCSDS_OMM_VERS = 2.0
CREATION_DATE  = 
ORIGINATOR     = 

OBJECT_NAME    = SL-16 R/B
OBJECT_ID      = 1988-102B
CENTER_NAME    = EARTH
REF_FRAME      = TEME
TIME_SYSTEM    = UTC
MEAN_ELEMENT_THEORY = SGP/SGP4

EPOCH          = 2025-12-03T18:29:08.939040
MEAN_MOTION    = 14.16137351
ECCENTRICITY   = .0013391
INCLINATION    = 71.0003
RA_OF_ASC_NODE = 353.3165
ARG_OF_PERICENTER = 166.8532
MEAN_ANOMALY   = 193.2943

EPHEMERIS_TYPE = 0
CLASSIFICATION_TYPE = U
NORAD_CAT_ID   = 19650
ELEMENT_SET_NO = 999
REV_AT_EPOCH   = 91331
BSTAR          = -.30787E-4
MEAN_MOTION_DOT = -.109E-5
MEAN_MOTION_DDOT = 0

CCSDS_OMM_VERS = 2.0
CREATION_DATE  = 
ORIGINATOR     = 

OBJECT_NAME    = INTERCOSMOS 24
OBJECT_ID      = 1989-080A
CENTER_NAME    = EARTH
REF_FRAME      = TEME
TIME_SYSTEM    = UTC
MEAN_ELEMENT_THEORY = SGP/SGP4

EPOCH          = 2025-12-03T14:34:50.395872
MEAN_MOTION    = 12.59412857
ECCENTRICITY   = .1188732
INCLINATION    = 82.6045
RA_OF_ASC_NODE = 166.8906
ARG_OF_PERICENTER = 155.6982
MEAN_ANOMALY   = 210.5267

EPHEMERIS_TYPE = 0
CLASSIFICATION_TYPE = U
NORAD_CAT_ID   = 20261
ELEMENT_SET_NO = 999
REV_AT_EPOCH   = 65470
BSTAR          = .33868E-3
MEAN_MOTION_DOT = .1169E-4
MEAN_MOTION_DDOT = 0

CCSDS_OMM_VERS = 2.0
CREATION_DATE  = 
ORIGINATOR     = 

OBJECT_NAME    = SL-14 R/B
OBJECT_ID      = 1989-080C
CENTER_NAME    = EARTH
REF_FRAME      = TEME
TIME_SYSTEM    = UTC
MEAN_ELEMENT_THEORY = SGP/SGP4

EPOCH          = 2025-12-03T18:48:22.412736
MEAN_MOTION    = 12.50401866
ECCENTRICITY   = .1230801
INCLINATION    = 82.5937
RA_OF_ASC_NODE = 234.7687
ARG_OF_PERICENTER = 44.0525
MEAN_ANOMALY   = 325.2232

EPHEMERIS_TYPE = 0
CLASSIFICATION_TYPE = U
NORAD_CAT_ID   = 20262
ELEMENT_SET_NO = 999
REV_AT_EPOCH   = 64816
BSTAR          = .18702E-3
MEAN_MOTION_DOT = .643E-5
MEAN_MOTION_DDOT = 0

CCSDS_OMM_VERS = 2.0
CREATION_DATE  = 
ORIGINATOR     = 

OBJECT_NAME    = DELTA 1 R/B
OBJECT_ID      = 1989-089B
CENTER_NAME    = EARTH
REF_FRAME      = TEME
TIME_SYSTEM    = UTC
MEAN_ELEMENT_THEORY = SGP/SGP4

EPOCH          = 2025-12-03T14:28:51.815136
MEAN_MOTION    = 14.50560122
ECCENTRICITY   = .0070561
INCLINATION    = 97.0758
RA_OF_ASC_NODE = 195.2886
ARG_OF_PERICENTER = 66.6513
MEAN_ANOMALY   = 294.2088

EPHEMERIS_TYPE = 0
CLASSIFICATION_TYPE = U
NORAD_CAT_ID   = 20323
ELEMENT_SET_NO = 999
REV_AT_EPOCH   = 88180
BSTAR          = .14519E-3
MEAN_MOTION_DOT = .552E-5
MEAN_MOTION_DDOT = 0

CCSDS_OMM_VERS = 2.0
CREATION_DATE  = 
ORIGINATOR     = 

OBJECT_NAME    = ARIANE 40 R/B
OBJECT_ID      = 1990-005H
CENTER_NAME    = EARTH
REF_FRAME      = TEME
TIME_SYSTEM    = UTC
MEAN_ELEMENT_THEORY = SGP/SGP4

EPOCH          = 2025-12-03T18:35:08.187648
MEAN_MOTION    = 14.39787331
ECCENTRICITY   = .0011039
INCLINATION    = 98.3257
RA_OF_ASC_NODE = 36.2053
ARG_OF_PERICENTER = 130.2633
MEAN_ANOMALY   = 229.9522

EPHEMERIS_TYPE = 0
CLASSIFICATION_TYPE = U
NORAD_CAT_ID   = 20443
ELEMENT_SET_NO = 999
REV_AT_EPOCH   = 87900
BSTAR          = .17817E-3
MEAN_MOTION_DOT = .517E-5
MEAN_MOTION_DDOT = 0

