COSMOS 1933             
1 18958U 88020A   25337.78242677  .00006371  00000+0  32104-3 0  9991
2 18958  82.5126 345.7294 0005090 151.1847 208.9668 15.16988994 35683
SL-3 R/B                
1 19046U 88032B   25337.76882733  .00008210  00000+0  39680-3 0  9994
2 19046  97.5064 316.5528 0025750 204.7654 155.2346 15.18593800 37545
SL-16 R/B               
1 19120U 88039B   25337.86854999  .00000137  00000+0  87680-4 0  9992
2 19120  71.0149 271.1549 0020005 131.2567 229.0285 14.19593808944786
COSMOS 1953             
1 19210U 88050A   25337.79148119  .00009764  00000+0  36884-3 0  9991
2 19210  82.5097 254.5577 0013800  98.5861 261.6942 15.26768301 23149
SL-8 R/B                
1 19257U 88053B   25337.38262608  .00000388  00000+0  13441-3 0  9997
2 19257  74.0475 289.9649 0019218 137.4816  27.7045 14.38849615962743
COSMOS 1975             
1 19573U 88093A   25337.73404458  .00012601  00000+0  48387-3 0  9990
2 19573  82.5216 213.8421 0012249 140.9470 219.2655 15.26261430  4762
SL-14 R/B               
1 19574U 88093B   25337.54836506  .00000799  00000+0  89374-4 0  9990
2 19574  82.5295 132.2926 0020750   0.3563  67.0860 14.85532857986766
SL-16 R/B               
1 19650U 88102B   25337.77024235 -.00000109  00000+0 -30787-4 0  9990
2 19650  71.0003 353.3165 0013391 166.8532 193.2943 14.16137351913318
INTERCOSMOS 24          
1 20261U 89080A   25337.60752773  .00001169  00000+0  33868-3 0  9990
2 20261  82.6045 166.8906 1188732 155.6982 210.5267 12.59412857654709
SL-14 R/B               
1 20262U 89080C   25337.78359274  .00000643  00000+0  18702-3 0  9995
2 20262  82.5937 234.7687 1230801  44.0525 325.2232 12.50401866648167
DELTA 1 R/B             
1 20323U 89089B   25337.60337749  .00000552  00000+0  14519-3 0  9997
2 20323  97.0758 195.2886 0070561  66.6513 294.2088 14.50560122881807
ARIANE 40 R/B           
1 20443U 90005H   25337.77440032  .00000517  00000+0  17817-3 0  9993
2 20443  98.3257  36.2053 0011039 130.2633 229.9522 14.39787331879001
